[{"OBJECT_NAME":"STARLINK-31627","OBJECT_ID":"2024-050Q","EPOCH":"2026-03-09T14:55:52.274784","MEAN_MOTION":15.30200209,"ECCENTRICITY":9.7e-5,"INCLINATION":53.1599,"RA_OF_ASC_NODE":181.629,"ARG_OF_PERICENTER":80.9687,"MEAN_ANOMALY":279.1423,"EPHEMERIS_TYPE":0,"CLASSIFICATION_TYPE":"U","NORAD_CAT_ID":59268,"ELEMENT_SET_NO":999,"REV_AT_EPOCH":11053,"BSTAR":0.00091832,"MEAN_MOTION_DOT":0.00026938,"MEAN_MOTION_DDOT":0},{"OBJECT_NAME":"OBJECT M","OBJECT_ID":"2025-155M","EPOCH":"2026-03-09T22:37:12.666144","MEAN_MOTION":15.33288683,"ECCENTRICITY":0.00088001,"INCLINATION":97.4429,"RA_OF_ASC_NODE":38.1052,"ARG_OF_PERICENTER":139.1253,"MEAN_ANOMALY":221.0651,"EPHEMERIS_TYPE":0,"CLASSIFICATION_TYPE":"U","NORAD_CAT_ID":64887,"ELEMENT_SET_NO":999,"REV_AT_EPOCH":6565,"BSTAR":0.00087834095,"MEAN_MOTION_DOT":0.00028279,"MEAN_MOTION_DDOT":0}]
